[
    {
        "Altitude(m)": 607886.7348360593,
        "Argument of Periapsis(deg)": 0.0,
        "Eccentricity": 0.0,
        "Inclination(deg)": 60.0,
        "Latitude(deg)": 40.99856117549371,
        "Longitude(deg)": 59.972891757906794,
        "Mean Anomaly(deg)": 49.09089999999999,
        "RAAN(deg)": 130.0,
        "Satellite Name": "Test1 575",
        "Satellite Number": 575,
        "Semi-Major Axis(m)": 6980739.136638005,
        "Time(s)": 0
    },
    {
        "Altitude(m)": 607987.6493017641,
        "Argument of Periapsis(deg)": 0.00010418945913296404,
        "Eccentricity": 0.0,
        "Inclination(deg)": 60.0,
        "Latitude(deg)": 41.46365213045801,
        "Longitude(deg)": 60.47711909098863,
        "Mean Anomaly(deg)": 49.71100614546182,
        "RAAN(deg)": 129.99957995086024,
        "Satellite Name": "Test1 575",
        "Satellite Number": 575,
        "Semi-Major Axis(m)": 6980739.136638005,
        "Time(s)": 10
    }
]